[{"OBJECT_NAME":"ONEWEB-0262","OBJECT_ID":"2021-060P","EPOCH":"2025-09-21T02:04:05.975328","MEAN_MOTION":13.16595341,"ECCENTRICITY":0.00017956,"INCLINATION":87.8977,"RA_OF_ASC_NODE":282.3979,"ARG_OF_PERICENTER":102.5824,"MEAN_ANOMALY":257.5508,"EPHEMERIS_TYPE":0,"CLASSIFICATION_TYPE":"U","NORAD_CAT_ID":48980,"ELEMENT_SET_NO":999,"REV_AT_EPOCH":20421,"BSTAR":-0.0004555619,"MEAN_MOTION_DOT":-1.61e-6,"MEAN_MOTION_DDOT":0},{"OBJECT_NAME":"ONEWEB-0263","OBJECT_ID":"2021-060Q","EPOCH":"2025-09-21T02:49:43.510080","MEAN_MOTION":13.16594948,"ECCENTRICITY":0.00014319,"INCLINATION":87.8965,"RA_OF_ASC_NODE":282.4131,"ARG_OF_PERICENTER":99.5266,"MEAN_ANOMALY":260.6027,"EPHEMERIS_TYPE":0,"CLASSIFICATION_TYPE":"U","NORAD_CAT_ID":48981,"ELEMENT_SET_NO":999,"REV_AT_EPOCH":20418,"BSTAR":0.0003980253,"MEAN_MOTION_DOT":1.65e-6,"MEAN_MOTION_DDOT":0},{"OBJECT_NAME":"ONEWEB-0264","OBJECT_ID":"2021-060R","EPOCH":"2025-09-21T01:53:52.201824","MEAN_MOTION":13.16593295,"ECCENTRICITY":0.00016723,"INCLINATION":87.8966,"RA_OF_ASC_NODE":282.4254,"ARG_OF_PERICENTER":85.6361,"MEAN_ANOMALY":274.4961,"EPHEMERIS_TYPE":0,"CLASSIFICATION_TYPE":"U","NORAD_CAT_ID":48982,"ELEMENT_SET_NO":999,"REV_AT_EPOCH":20418,"BSTAR":6.78008e-6,"MEAN_MOTION_DOT":1.5e-7,"MEAN_MOTION_DDOT":0},{"OBJECT_NAME":"ONEWEB-0266","OBJECT_ID":"2021-060T","EPOCH":"2025-09-21T02:24:38.368512","MEAN_MOTION":13.16595015,"ECCENTRICITY":0.00019869,"INCLINATION":87.8971,"RA_OF_ASC_NODE":282.3988,"ARG_OF_PERICENTER":97.1116,"MEAN_ANOMALY":263.0241,"EPHEMERIS_TYPE":0,"CLASSIFICATION_TYPE":"U","NORAD_CAT_ID":48984,"ELEMENT_SET_NO":999,"REV_AT_EPOCH":20417,"BSTAR":0.00011439253,"MEAN_MOTION_DOT":5.7e-7,"MEAN_MOTION_DDOT":0},{"OBJECT_NAME":"ONEWEB-0267","OBJECT_ID":"2021-060U","EPOCH":"2025-09-21T02:40:36.334560","MEAN_MOTION":13.16594843,"ECCENTRICITY":0.00015826,"INCLINATION":87.8971,"RA_OF_ASC_NODE":282.3993,"ARG_OF_PERICENTER":91.8517,"MEAN_ANOMALY":268.2795,"EPHEMERIS_TYPE":0,"CLASSIFICATION_TYPE":"U","NORAD_CAT_ID":48985,"ELEMENT_SET_NO":999,"REV_AT_EPOCH":20418,"BSTAR":0.0003455092,"MEAN_MOTION_DOT":1.45e-6,"MEAN_MOTION_DDOT":0},{"OBJECT_NAME":"ONEWEB-0268","OBJECT_ID":"2021-060V","EPOCH":"2025-09-21T01:54:59.090976","MEAN_MOTION":13.16595543,"ECCENTRICITY":0.00018105,"INCLINATION":87.8974,"RA_OF_ASC_NODE":282.4116,"ARG_OF_PERICENTER":88.9608,"MEAN_ANOMALY":271.173,"EPHEMERIS_TYPE":0,"CLASSIFICATION_TYPE":"U","NORAD_CAT_ID":48986,"ELEMENT_SET_NO":999,"REV_AT_EPOCH":20444,"BSTAR":2.319951e-5,"MEAN_MOTION_DOT":2.2e-7,"MEAN_MOTION_DDOT":0},{"OBJECT_NAME":"ONEWEB-0269","OBJECT_ID":"2021-060W","EPOCH":"2025-09-21T06:55:57.848736","MEAN_MOTION":13.16594375,"ECCENTRICITY":0.00019827,"INCLINATION":87.8965,"RA_OF_ASC_NODE":282.3995,"ARG_OF_PERICENTER":89.074,"MEAN_ANOMALY":271.0618,"EPHEMERIS_TYPE":0,"CLASSIFICATION_TYPE":"U","NORAD_CAT_ID":48987,"ELEMENT_SET_NO":999,"REV_AT_EPOCH":20424,"BSTAR":5.1785257e-5,"MEAN_MOTION_DOT":3.3e-7,"MEAN_MOTION_DDOT":0},{"OBJECT_NAME":"ONEWEB-0270","OBJECT_ID":"2021-060X","EPOCH":"2025-09-21T01:52:43.073184","MEAN_MOTION":13.16595448,"ECCENTRICITY":0.00014866,"INCLINATION":87.8974,"RA_OF_ASC_NODE":282.4135,"ARG_OF_PERICENTER":101.8428,"MEAN_ANOMALY":258.287,"EPHEMERIS_TYPE":0,"CLASSIFICATION_TYPE":"U","NORAD_CAT_ID":48988,"ELEMENT_SET_NO":999,"REV_AT_EPOCH":20425,"BSTAR":7.3829615e-5,"MEAN_MOTION_DOT":4.1e-7,"MEAN_MOTION_DDOT":0},{"OBJECT_NAME":"ONEWEB-0271","OBJECT_ID":"2021-060Y","EPOCH":"2025-09-21T07:02:47.156640","MEAN_MOTION":13.16595734,"ECCENTRICITY":0.00015537,"INCLINATION":87.8975,"RA_OF_ASC_NODE":282.3546,"ARG_OF_PERICENTER":92.3915,"MEAN_ANOMALY":267.7394,"EPHEMERIS_TYPE":0,"CLASSIFICATION_TYPE":"U","NORAD_CAT_ID":48989,"ELEMENT_SET_NO":999,"REV_AT_EPOCH":20428,"BSTAR":-3.0245585e-5,"MEAN_MOTION_DOT":1.0e-8,"MEAN_MOTION_DDOT":0},{"OBJECT_NAME":"ONEWEB-0272","OBJECT_ID":"2021-060Z","EPOCH":"2025-09-21T02:06:22.655808","MEAN_MOTION":13.16593804,"ECCENTRICITY":0.00016417,"INCLINATION":87.8965,"RA_OF_ASC_NODE":282.4231,"ARG_OF_PERICENTER":87.1334,"MEAN_ANOMALY":272.9984,"EPHEMERIS_TYPE":0,"CLASSIFICATION_TYPE":"U","NORAD_CAT_ID":48990,"ELEMENT_SET_NO":999,"REV_AT_EPOCH":20420,"BSTAR":-0.00072219101,"MEAN_MOTION_DOT":-2.63e-6,"MEAN_MOTION_DDOT":0},{"OBJECT_NAME":"ONEWEB-0273","OBJECT_ID":"2021-060AA","EPOCH":"2025-09-21T02:38:20.213952","MEAN_MOTION":13.16594443,"ECCENTRICITY":0.00017151,"INCLINATION":87.8972,"RA_OF_ASC_NODE":282.4073,"ARG_OF_PERICENTER":96.3438,"MEAN_ANOMALY":263.7888,"EPHEMERIS_TYPE":0,"CLASSIFICATION_TYPE":"U","NORAD_CAT_ID":48991,"ELEMENT_SET_NO":999,"REV_AT_EPOCH":20418,"BSTAR":0.00021867497,"MEAN_MOTION_DOT":9.6e-7,"MEAN_MOTION_DDOT":0},{"OBJECT_NAME":"ONEWEB-0274","OBJECT_ID":"2021-060AB","EPOCH":"2025-09-21T06:53:40.722432","MEAN_MOTION":13.16594781,"ECCENTRICITY":0.00017494,"INCLINATION":87.8963,"RA_OF_ASC_NODE":282.4024,"ARG_OF_PERICENTER":79.0359,"MEAN_ANOMALY":281.0969,"EPHEMERIS_TYPE":0,"CLASSIFICATION_TYPE":"U","NORAD_CAT_ID":48992,"ELEMENT_SET_NO":999,"REV_AT_EPOCH":20424,"BSTAR":-1.7032449e-5,"MEAN_MOTION_DOT":6.0e-8,"MEAN_MOTION_DDOT":0},{"OBJECT_NAME":"ONEWEB-0275","OBJECT_ID":"2021-060AC","EPOCH":"2025-09-21T02:58:50.484288","MEAN_MOTION":13.16594565,"ECCENTRICITY":0.00017596,"INCLINATION":87.8974,"RA_OF_ASC_NODE":282.3991,"ARG_OF_PERICENTER":89.6893,"MEAN_ANOMALY":270.4439,"EPHEMERIS_TYPE":0,"CLASSIFICATION_TYPE":"U","NORAD_CAT_ID":48993,"ELEMENT_SET_NO":999,"REV_AT_EPOCH":20415,"BSTAR":0.00019017164,"MEAN_MOTION_DOT":8.6e-7,"MEAN_MOTION_DDOT":0},{"OBJECT_NAME":"ONEWEB-0276","OBJECT_ID":"2021-060AD","EPOCH":"2025-09-21T01:57:16.336512","MEAN_MOTION":13.16595884,"ECCENTRICITY":0.00018212,"INCLINATION":87.8976,"RA_OF_ASC_NODE":282.4051,"ARG_OF_PERICENTER":97.7697,"MEAN_ANOMALY":262.364,"EPHEMERIS_TYPE":0,"CLASSIFICATION_TYPE":"U","NORAD_CAT_ID":48994,"ELEMENT_SET_NO":999,"REV_AT_EPOCH":20416,"BSTAR":3.629334e-6,"MEAN_MOTION_DOT":1.4e-7,"MEAN_MOTION_DDOT":0},{"OBJECT_NAME":"ONEWEB-0277","OBJECT_ID":"2021-060AE","EPOCH":"2025-09-21T02:15:26.475552","MEAN_MOTION":13.16626587,"ECCENTRICITY":0.00017663,"INCLINATION":87.8952,"RA_OF_ASC_NODE":282.4336,"ARG_OF_PERICENTER":95.0925,"MEAN_ANOMALY":265.0407,"EPHEMERIS_TYPE":0,"CLASSIFICATION_TYPE":"U","NORAD_CAT_ID":48995,"ELEMENT_SET_NO":999,"REV_AT_EPOCH":20415,"BSTAR":0.0061067923,"MEAN_MOTION_DOT":2.349e-5,"MEAN_MOTION_DDOT":0},{"OBJECT_NAME":"ONEWEB-0278","OBJECT_ID":"2021-060AF","EPOCH":"2025-09-21T02:01:49.242144","MEAN_MOTION":13.16594335,"ECCENTRICITY":0.00020642,"INCLINATION":87.8973,"RA_OF_ASC_NODE":282.4012,"ARG_OF_PERICENTER":96.7635,"MEAN_ANOMALY":263.3731,"EPHEMERIS_TYPE":0,"CLASSIFICATION_TYPE":"U","NORAD_CAT_ID":48996,"ELEMENT_SET_NO":999,"REV_AT_EPOCH":20428,"BSTAR":-0.0006059326,"MEAN_MOTION_DOT":-2.19e-6,"MEAN_MOTION_DDOT":0}]
