ONEWEB-0262             
1 48980U 21060P   25264.08618027 -.00000161  00000+0 -45556-3 0  9996
2 48980  87.8977 282.3979 0001795 102.5824 257.5508 13.16595341204210
ONEWEB-0263             
1 48981U 21060Q   25264.11786470  .00000165  00000+0  39803-3 0  9999
2 48981  87.8965 282.4131 0001431  99.5266 260.6027 13.16594948204180
ONEWEB-0264             
1 48982U 21060R   25264.07907641  .00000015  00000+0  67801-5 0  9995
2 48982  87.8966 282.4254 0001672  85.6361 274.4961 13.16593295204181
ONEWEB-0266             
1 48984U 21060T   25264.10044408  .00000057  00000+0  11439-3 0  9994
2 48984  87.8971 282.3988 0001986  97.1116 263.0241 13.16595015204172
ONEWEB-0267             
1 48985U 21060U   25264.11153165  .00000145  00000+0  34551-3 0  9995
2 48985  87.8971 282.3993 0001582  91.8517 268.2795 13.16594843204187
ONEWEB-0268             
1 48986U 21060V   25264.07985059  .00000022  00000+0  23200-4 0  9990
2 48986  87.8974 282.4116 0001810  88.9608 271.1730 13.16595543204440
ONEWEB-0269             
1 48987U 21060W   25264.28886399  .00000033  00000+0  51785-4 0  9992
2 48987  87.8965 282.3995 0001982  89.0740 271.0618 13.16594375204248
ONEWEB-0270             
1 48988U 21060X   25264.07827631  .00000041  00000+0  73830-4 0  9998
2 48988  87.8974 282.4135 0001486 101.8428 258.2870 13.16595448204251
ONEWEB-0271             
1 48989U 21060Y   25264.29360135  .00000001  00000+0 -30246-4 0  9995
2 48989  87.8975 282.3546 0001553  92.3915 267.7394 13.16595734204285
ONEWEB-0272             
1 48990U 21060Z   25264.08776222 -.00000263  00000+0 -72219-3 0  9998
2 48990  87.8965 282.4231 0001641  87.1334 272.9984 13.16593804204204
ONEWEB-0273             
1 48991U 21060AA  25264.10995618  .00000096  00000+0  21867-3 0  9999
2 48991  87.8972 282.4073 0001715  96.3438 263.7888 13.16594443204184
ONEWEB-0274             
1 48992U 21060AB  25264.28727688  .00000006  00000+0 -17032-4 0  9991
2 48992  87.8963 282.4024 0001749  79.0359 281.0969 13.16594781204243
ONEWEB-0275             
1 48993U 21060AC  25264.12419542  .00000086  00000+0  19017-3 0  9993
2 48993  87.8974 282.3991 0001759  89.6893 270.4439 13.16594565204153
ONEWEB-0276             
1 48994U 21060AD  25264.08143908  .00000014  00000+0  36293-5 0  9997
2 48994  87.8976 282.4051 0001821  97.7697 262.3640 13.16595884204166
ONEWEB-0277             
1 48995U 21060AE  25264.09405643  .00002349  00000+0  61068-2 0  9994
2 48995  87.8952 282.4336 0001766  95.0925 265.0407 13.16626587204155
ONEWEB-0278             
1 48996U 21060AF  25264.08459771 -.00000219  00000+0 -60593-3 0  9994
2 48996  87.8973 282.4012 0002064  96.7635 263.3731 13.16594335204288
